CCSDS_OMM_VERS = 2.0
CREATION_DATE  = 
ORIGINATOR     = 

OBJECT_NAME    = HULIANWANG DIGUI-145
OBJECT_ID      = 2026-007J
CENTER_NAME    = EARTH
REF_FRAME      = TEME
TIME_SYSTEM    = UTC
MEAN_ELEMENT_THEORY = SGP/SGP4

EPOCH          = 2026-01-24T21:13:59.174688
MEAN_MOTION    = 13.90781533
ECCENTRICITY   = .00089706
INCLINATION    = 49.9806
RA_OF_ASC_NODE = 249.6254
ARG_OF_PERICENTER = 27.5132
MEAN_ANOMALY   = 332.6240

EPHEMERIS_TYPE = 0
CLASSIFICATION_TYPE = U
NORAD_CAT_ID   = 67443
ELEMENT_SET_NO = 999
REV_AT_EPOCH   = 157
BSTAR          = .22007044E-3
MEAN_MOTION_DOT = .13E-5
MEAN_MOTION_DDOT = 0

CCSDS_OMM_VERS = 2.0
CREATION_DATE  = 
ORIGINATOR     = 

OBJECT_NAME    = CZ-8A R/B
OBJECT_ID      = 2026-007K
CENTER_NAME    = EARTH
REF_FRAME      = TEME
TIME_SYSTEM    = UTC
MEAN_ELEMENT_THEORY = SGP/SGP4

EPOCH          = 2026-01-25T15:15:47.657664
MEAN_MOTION    = 14.13548319
ECCENTRICITY   = .00921748
INCLINATION    = 50.0086
RA_OF_ASC_NODE = 244.8614
ARG_OF_PERICENTER = 124.2162
MEAN_ANOMALY   = 236.7523

EPHEMERIS_TYPE = 0
CLASSIFICATION_TYPE = U
NORAD_CAT_ID   = 67444
ELEMENT_SET_NO = 999
REV_AT_EPOCH   = 169
BSTAR          = .17260809E-3
MEAN_MOTION_DOT = .185E-5
MEAN_MOTION_DDOT = 0

CCSDS_OMM_VERS = 2.0
CREATION_DATE  = 
ORIGINATOR     = 

OBJECT_NAME    = STARLINK-36542
OBJECT_ID      = 2026-008A
CENTER_NAME    = EARTH
REF_FRAME      = TEME
TIME_SYSTEM    = UTC
MEAN_ELEMENT_THEORY = SGP/SGP4

EPOCH          = 2026-01-25T14:00:01.000224
MEAN_MOTION    = 15.90795562
ECCENTRICITY   = .00014277
INCLINATION    = 43.0011
RA_OF_ASC_NODE = 95.5232
ARG_OF_PERICENTER = 283.8501
MEAN_ANOMALY   = 0.4666

EPHEMERIS_TYPE = 0
CLASSIFICATION_TYPE = U
NORAD_CAT_ID   = 67445
ELEMENT_SET_NO = 999
REV_AT_EPOCH   = 286
BSTAR          = -.37258542E-2
MEAN_MOTION_DOT = -.1071691E-1
MEAN_MOTION_DDOT = 0

CCSDS_OMM_VERS = 2.0
CREATION_DATE  = 
ORIGINATOR     = 

OBJECT_NAME    = STARLINK-36539
OBJECT_ID      = 2026-008B
CENTER_NAME    = EARTH
REF_FRAME      = TEME
TIME_SYSTEM    = UTC
MEAN_ELEMENT_THEORY = SGP/SGP4

EPOCH          = 2026-01-25T14:00:01.000224
MEAN_MOTION    = 15.90827135
ECCENTRICITY   = .00015162
INCLINATION    = 43.0011
RA_OF_ASC_NODE = 95.5164
ARG_OF_PERICENTER = 282.9065
MEAN_ANOMALY   = 4.0561

EPHEMERIS_TYPE = 0
CLASSIFICATION_TYPE = U
NORAD_CAT_ID   = 67446
ELEMENT_SET_NO = 999
REV_AT_EPOCH   = 286
BSTAR          = -.37051375E-2
MEAN_MOTION_DOT = -.1068006E-1
MEAN_MOTION_DDOT = 0

CCSDS_OMM_VERS = 2.0
CREATION_DATE  = 
ORIGINATOR     = 

OBJECT_NAME    = STARLINK-36440
OBJECT_ID      = 2026-008C
CENTER_NAME    = EARTH
REF_FRAME      = TEME
TIME_SYSTEM    = UTC
MEAN_ELEMENT_THEORY = SGP/SGP4

EPOCH          = 2026-01-25T14:00:01.000224
MEAN_MOTION    = 15.90876456
ECCENTRICITY   = .0001447
INCLINATION    = 43.0011
RA_OF_ASC_NODE = 95.5095
ARG_OF_PERICENTER = 281.9799
MEAN_ANOMALY   = 7.8420

EPHEMERIS_TYPE = 0
CLASSIFICATION_TYPE = U
NORAD_CAT_ID   = 67447
ELEMENT_SET_NO = 999
REV_AT_EPOCH   = 286
BSTAR          = -.37778833E-2
MEAN_MOTION_DOT = -.108902E-1
MEAN_MOTION_DDOT = 0

CCSDS_OMM_VERS = 2.0
CREATION_DATE  = 
ORIGINATOR     = 

OBJECT_NAME    = STARLINK-36423
OBJECT_ID      = 2026-008D
CENTER_NAME    = EARTH
REF_FRAME      = TEME
TIME_SYSTEM    = UTC
MEAN_ELEMENT_THEORY = SGP/SGP4

EPOCH          = 2026-01-25T14:00:01.000224
MEAN_MOTION    = 15.90910682
ECCENTRICITY   = .00015217
INCLINATION    = 43.0012
RA_OF_ASC_NODE = 95.5027
ARG_OF_PERICENTER = 283.1696
MEAN_ANOMALY   = 9.2249

EPHEMERIS_TYPE = 0
CLASSIFICATION_TYPE = U
NORAD_CAT_ID   = 67448
ELEMENT_SET_NO = 999
REV_AT_EPOCH   = 286
BSTAR          = -.37752613E-2
MEAN_MOTION_DOT = -.1090115E-1
MEAN_MOTION_DDOT = 0

CCSDS_OMM_VERS = 2.0
CREATION_DATE  = 
ORIGINATOR     = 

OBJECT_NAME    = STARLINK-36519
OBJECT_ID      = 2026-008E
CENTER_NAME    = EARTH
REF_FRAME      = TEME
TIME_SYSTEM    = UTC
MEAN_ELEMENT_THEORY = SGP/SGP4

EPOCH          = 2026-01-25T14:00:01.000224
MEAN_MOTION    = 15.90951124
ECCENTRICITY   = .00013893
INCLINATION    = 43.0012
RA_OF_ASC_NODE = 95.4957
ARG_OF_PERICENTER = 282.0142
MEAN_ANOMALY   = 13.1718

EPHEMERIS_TYPE = 0
CLASSIFICATION_TYPE = U
NORAD_CAT_ID   = 67449
ELEMENT_SET_NO = 999
REV_AT_EPOCH   = 286
BSTAR          = -.38074545E-2
MEAN_MOTION_DOT = -.1100309E-1
MEAN_MOTION_DDOT = 0

CCSDS_OMM_VERS = 2.0
CREATION_DATE  = 
ORIGINATOR     = 

OBJECT_NAME    = STARLINK-36525
OBJECT_ID      = 2026-008F
CENTER_NAME    = EARTH
REF_FRAME      = TEME
TIME_SYSTEM    = UTC
MEAN_ELEMENT_THEORY = SGP/SGP4

EPOCH          = 2026-01-25T14:00:01.000224
MEAN_MOTION    = 15.90994074
ECCENTRICITY   = .00014103
INCLINATION    = 43.0009
RA_OF_ASC_NODE = 95.4874
ARG_OF_PERICENTER = 283.1813
MEAN_ANOMALY   = 15.2536

EPHEMERIS_TYPE = 0
CLASSIFICATION_TYPE = U
NORAD_CAT_ID   = 67450
ELEMENT_SET_NO = 999
REV_AT_EPOCH   = 286
BSTAR          = -.38409693E-2
MEAN_MOTION_DOT = -.1111073E-1
MEAN_MOTION_DDOT = 0

CCSDS_OMM_VERS = 2.0
CREATION_DATE  = 
ORIGINATOR     = 

OBJECT_NAME    = STARLINK-36511
OBJECT_ID      = 2026-008G
CENTER_NAME    = EARTH
REF_FRAME      = TEME
TIME_SYSTEM    = UTC
MEAN_ELEMENT_THEORY = SGP/SGP4

EPOCH          = 2026-01-25T14:00:01.000224
MEAN_MOTION    = 15.91036473
ECCENTRICITY   = .00014505
INCLINATION    = 43.0010
RA_OF_ASC_NODE = 95.4791
ARG_OF_PERICENTER = 282.9836
MEAN_ANOMALY   = 18.8151

EPHEMERIS_TYPE = 0
CLASSIFICATION_TYPE = U
NORAD_CAT_ID   = 67451
ELEMENT_SET_NO = 999
REV_AT_EPOCH   = 286
BSTAR          = -.38761905E-2
MEAN_MOTION_DOT = -.1122271E-1
MEAN_MOTION_DDOT = 0

CCSDS_OMM_VERS = 2.0
CREATION_DATE  = 
ORIGINATOR     = 

OBJECT_NAME    = STARLINK-36524
OBJECT_ID      = 2026-008H
CENTER_NAME    = EARTH
REF_FRAME      = TEME
TIME_SYSTEM    = UTC
MEAN_ELEMENT_THEORY = SGP/SGP4

EPOCH          = 2026-01-25T14:00:01.000224
MEAN_MOTION    = 15.91076836
ECCENTRICITY   = .00014336
INCLINATION    = 43.0010
RA_OF_ASC_NODE = 95.4716
ARG_OF_PERICENTER = 283.7946
MEAN_ANOMALY   = 20.8335

EPHEMERIS_TYPE = 0
CLASSIFICATION_TYPE = U
NORAD_CAT_ID   = 67452
ELEMENT_SET_NO = 999
REV_AT_EPOCH   = 286
BSTAR          = -.38951441E-2
MEAN_MOTION_DOT = -.112919E-1
MEAN_MOTION_DDOT = 0

CCSDS_OMM_VERS = 2.0
CREATION_DATE  = 
ORIGINATOR     = 

OBJECT_NAME    = STARLINK-36518
OBJECT_ID      = 2026-008J
CENTER_NAME    = EARTH
REF_FRAME      = TEME
TIME_SYSTEM    = UTC
MEAN_ELEMENT_THEORY = SGP/SGP4

EPOCH          = 2026-01-25T14:00:01.000224
MEAN_MOTION    = 15.93892960
ECCENTRICITY   = .00014593
INCLINATION    = 43.0001
RA_OF_ASC_NODE = 95.1503
ARG_OF_PERICENTER = 291.6153
MEAN_ANOMALY   = 138.9226

EPHEMERIS_TYPE = 0
CLASSIFICATION_TYPE = U
NORAD_CAT_ID   = 67453
ELEMENT_SET_NO = 999
REV_AT_EPOCH   = 288
BSTAR          = -.41099711E-2
MEAN_MOTION_DOT = -.1556118E-1
MEAN_MOTION_DDOT = .69155864E-3

CCSDS_OMM_VERS = 2.0
CREATION_DATE  = 
ORIGINATOR     = 

OBJECT_NAME    = STARLINK-36517
OBJECT_ID      = 2026-008K
CENTER_NAME    = EARTH
REF_FRAME      = TEME
TIME_SYSTEM    = UTC
MEAN_ELEMENT_THEORY = SGP/SGP4

EPOCH          = 2026-01-25T14:00:01.000224
MEAN_MOTION    = 15.91120246
ECCENTRICITY   = .00014518
INCLINATION    = 43.0009
RA_OF_ASC_NODE = 95.4626
ARG_OF_PERICENTER = 280.5440
MEAN_ANOMALY   = 27.5391

EPHEMERIS_TYPE = 0
CLASSIFICATION_TYPE = U
NORAD_CAT_ID   = 67454
ELEMENT_SET_NO = 999
REV_AT_EPOCH   = 288
BSTAR          = -.39377558E-2
MEAN_MOTION_DOT = -.1142343E-1
MEAN_MOTION_DDOT = 0

CCSDS_OMM_VERS = 2.0
CREATION_DATE  = 
ORIGINATOR     = 

OBJECT_NAME    = STARLINK-36516
OBJECT_ID      = 2026-008L
CENTER_NAME    = EARTH
REF_FRAME      = TEME
TIME_SYSTEM    = UTC
MEAN_ELEMENT_THEORY = SGP/SGP4

EPOCH          = 2026-01-25T14:00:01.000224
MEAN_MOTION    = 15.91241584
ECCENTRICITY   = .00015955
INCLINATION    = 43.0013
RA_OF_ASC_NODE = 95.4456
ARG_OF_PERICENTER = 279.0884
MEAN_ANOMALY   = 35.9937

EPHEMERIS_TYPE = 0
CLASSIFICATION_TYPE = U
NORAD_CAT_ID   = 67455
ELEMENT_SET_NO = 999
REV_AT_EPOCH   = 286
BSTAR          = -.39966681E-2
MEAN_MOTION_DOT = -.1319537E-1
MEAN_MOTION_DDOT = .49803797E-3

CCSDS_OMM_VERS = 2.0
CREATION_DATE  = 
ORIGINATOR     = 

OBJECT_NAME    = STARLINK-36493
OBJECT_ID      = 2026-008M
CENTER_NAME    = EARTH
REF_FRAME      = TEME
TIME_SYSTEM    = UTC
MEAN_ELEMENT_THEORY = SGP/SGP4

EPOCH          = 2026-01-25T14:00:01.000224
MEAN_MOTION    = 15.91152900
ECCENTRICITY   = .00014321
INCLINATION    = 43.0013
RA_OF_ASC_NODE = 95.4586
ARG_OF_PERICENTER = 283.6888
MEAN_ANOMALY   = 26.1962

EPHEMERIS_TYPE = 0
CLASSIFICATION_TYPE = U
NORAD_CAT_ID   = 67456
ELEMENT_SET_NO = 999
REV_AT_EPOCH   = 286
BSTAR          = -.39247015E-2
MEAN_MOTION_DOT = -.1140711E-1
MEAN_MOTION_DDOT = 0

CCSDS_OMM_VERS = 2.0
CREATION_DATE  = 
ORIGINATOR     = 

OBJECT_NAME    = STARLINK-36529
OBJECT_ID      = 2026-008N
CENTER_NAME    = EARTH
REF_FRAME      = TEME
TIME_SYSTEM    = UTC
MEAN_ELEMENT_THEORY = SGP/SGP4

EPOCH          = 2026-01-25T14:00:01.000224
MEAN_MOTION    = 15.91198482
ECCENTRICITY   = .0001546
INCLINATION    = 43.0012
RA_OF_ASC_NODE = 95.4515
ARG_OF_PERICENTER = 281.2687
MEAN_ANOMALY   = 31.2906

EPHEMERIS_TYPE = 0
CLASSIFICATION_TYPE = U
NORAD_CAT_ID   = 67457
ELEMENT_SET_NO = 999
REV_AT_EPOCH   = 286
BSTAR          = -.39672169E-2
MEAN_MOTION_DOT = -.130703E-1
MEAN_MOTION_DDOT = .48922798E-3

